[{"OBJECT_NAME":"STARLINK-34979","OBJECT_ID":"2025-179V","EPOCH":"2026-03-09T16:26:15.786816","MEAN_MOTION":15.05648512,"ECCENTRICITY":8.763e-5,"INCLINATION":97.6021,"RA_OF_ASC_NODE":112.898,"ARG_OF_PERICENTER":165.1317,"MEAN_ANOMALY":194.9936,"EPHEMERIS_TYPE":0,"CLASSIFICATION_TYPE":"U","NORAD_CAT_ID":65254,"ELEMENT_SET_NO":999,"REV_AT_EPOCH":3181,"BSTAR":5.3922991e-5,"MEAN_MOTION_DOT":7.17e-6,"MEAN_MOTION_DDOT":0},{"OBJECT_NAME":"COSMOS 2251 DEB","OBJECT_ID":"1993-036GR","EPOCH":"2026-03-09T03:51:30.155616","MEAN_MOTION":15.03624382,"ECCENTRICITY":0.001162,"INCLINATION":74.0519,"RA_OF_ASC_NODE":328.1155,"ARG_OF_PERICENTER":228.8449,"MEAN_ANOMALY":281.5146,"EPHEMERIS_TYPE":0,"CLASSIFICATION_TYPE":"U","NORAD_CAT_ID":34006,"ELEMENT_SET_NO":999,"REV_AT_EPOCH":89963,"BSTAR":0.0037151817,"MEAN_MOTION_DOT":0.00051242,"MEAN_MOTION_DDOT":0}]
